COSMOS 1408 DEB         
1 49584U 82092BZ  22029.45382161  .00067934  00000+0  37343-2 0  9996
2 49584  82.0487  44.9352 0135685 192.3695 167.4192 15.06181050 11112
COSMOS 1408 DEB         
1 49586U 82092CB  22029.49688277  .00147461  00000+0  22363-2 0  9999
2 49586  82.7066  48.0630 0029739 328.3165  31.6297 15.53589838 11388
COSMOS 1408 DEB         
1 49587U 82092CC  22029.52269472  .00031901  00000+0  16758-2 0  9998
2 49587  82.3051  49.1030 0238848 223.6403 134.5715 14.94178717 10886
COSMOS 1408 DEB         
1 49588U 82092CD  22029.54783923  .00145025  00000+0  40094-2 0  9996
2 49588  82.5744  48.2057 0019874 152.7692 207.4599 15.36257596 11493
COSMOS 1408 DEB         
1 49590U 82092CF  22029.53015464  .00007230  00000+0  38517-3 0  9999
2 49590  82.5494  50.3612 0120025 147.9551 212.9051 15.08900912 11108
COSMOS 1408 DEB         
1 49591U 82092CG  22029.50280920  .00014194  00000+0  99992-3 0  9999
2 49591  82.6023  53.3486 0212498 203.7105 155.4214 14.88391530 10054
COSMOS 1408 DEB         
1 49592U 82092CH  22029.52150554  .00055409  00000+0  17749-2 0  9994
2 49592  82.5902  48.9688 0084087  99.7783 261.2966 15.28694753 11240
COSMOS 1408 DEB         
1 49593U 82092CJ  22029.51679632  .00013239  00000+0  96687-3 0  9991
2 49593  82.4343  51.4417 0213985 199.5953 159.6953 14.86946999 10865
COSMOS 1408 DEB         
1 49594U 82092CK  22029.51239672  .00184288  00000+0  34574-2 0  9997
2 49594  82.5190  46.3773 0006970  20.8166 339.3366 15.47930085 11303
COSMOS 1408 DEB         
1 49595U 82092CL  22029.53872085  .00007295  00000+0  73509-3 0  9995
2 49595  82.4261  54.2686 0321470 186.5384 173.1582 14.59497425 10660
COSMOS 1408 DEB         
1 49596U 82092CM  22029.74155721  .00850704  26610-3  39476-2 0  9994
2 49596  82.5197  44.0128 0037203  26.5556 333.7607 15.82325939 11581
COSMOS 1408 DEB         
1 49597U 82092CN  22029.78838848  .00260157  00000+0  26472-2 0  9997
2 49597  82.4772  44.5056 0080676  46.3389 314.4517 15.60319390 11408
COSMOS 1408 DEB         
1 49599U 82092CQ  22029.54882841  .00084171  00000+0  48903-2 0  9998
2 49599  82.5336  51.5392 0171669 203.0969 156.2476 15.00113127 10912
COSMOS 1408 DEB         
1 49600U 82092CR  22029.53025287  .00037220  00000+0  18954-2 0  9999
2 49600  82.5374  52.8365 0281067 137.5012 224.8346 14.88368796 10888
COSMOS 1408 DEB         
1 49601U 82092CS  22029.51077625  .00025863  00000+0  15444-2 0  9992
2 49601  82.4942  50.5513 0146355 153.7946 207.0784 15.02322376 10975
COSMOS 1408 DEB         
1 49602U 82092CT  22029.52038424  .00009705  00000+0  47640-3 0  9999
2 49602  82.6100  50.5522 0087442 148.4742 212.1773 15.14547057 11019
COSMOS 1408 DEB         
1 49604U 82092CV  22029.50322311  .00003741  00000+0  18077-3 0  9996
2 49604  82.5201  49.2488 0074249 164.3890 195.9658 15.15831820 11026
COSMOS 1408 DEB         
1 49605U 82092CW  22029.59927362  .00017182  00000+0  85592-3 0  9993
2 49605  82.5528  50.3129 0137101 134.3218 226.9351 15.09471615 11044
COSMOS 1408 DEB         
1 49606U 82092CX  22029.55054883  .00012438  00000+0  42912-3 0  9997
2 49606  82.5944  48.7652 0050690  99.1227 261.5753 15.28575342 11105
COSMOS 1408 DEB         
1 49607U 82092CY  22029.57889708  .00010641  00000+0  10155-2 0  9999
2 49607  82.8885  59.2474 0302558 191.7566 167.6472 14.64456124 10782
COSMOS 1408 DEB         
1 49608U 82092CZ  22029.51332764  .00033891  00000+0  14748-2 0  9993
2 49608  82.2130  45.0643 0070179 189.7176 170.2706 15.19823508 11209
COSMOS 1408 DEB         
1 49609U 82092DA  22029.52190698  .00007880  00000+0  41287-3 0  9991
2 49609  82.5633  50.3809 0109906 145.1289 215.7207 15.10430136 11142
COSMOS 1408 DEB         
1 49610U 82092DB  22027.28958034  .04852573  21353-1  29926-1 0  9991
2 49610  82.7039  58.6457 0105028 146.4915 214.3054 15.72932750 10564
COSMOS 1408 DEB         
1 49611U 82092DC  22029.55048181  .00519645  00000+0  51780-1 0  9990
2 49611  82.2435  55.9738 0418211 200.1472 158.2790 14.41974649 10481
COSMOS 1408 DEB         
1 49612U 82092DD  22029.51129897  .00017948  00000+0  11529-2 0  9998
2 49612  82.9458  57.1526 0205370 205.8826 153.2014 14.92505737 10868
COSMOS 1408 DEB         
1 49613U 82092DE  22029.51705484  .00089290  00000+0  25392-2 0  9993
2 49613  82.4963  47.1572 0025048 120.5501 239.8219 15.35473348 11296
COSMOS 1408 DEB         
1 49617U 82092DJ  22029.54052858  .00326011  00000+0  65174-2 0  9997
2 49617  82.5232  47.2676 0023554 138.7937 221.5095 15.45309309 11072
COSMOS 1408 DEB         
1 49619U 82092DL  22029.46618626  .00008733  00000+0  11657-2 0  9996
2 49619  81.9683  54.0700 0536053 216.9161 139.3986 14.12124071 10250
COSMOS 1408 DEB         
1 49620U 82092DM  22029.53042423  .00860019  00000+0  18750-1 0  9995
2 49620  82.5430  50.5804 0102085 138.9220 221.9770 15.36526812 10826
COSMOS 1408 DEB         
1 49621U 82092DN  22029.47934599  .00010680  00000+0  45268-3 0  9990
2 49621  82.5716  49.4333 0067589 132.7828 227.9121 15.20873088 10923
COSMOS 1408 DEB         
1 49622U 82092DP  22029.54117171  .00007094  00000+0  23486-3 0  9991
2 49622  82.5832  48.4517 0050311  90.1742 270.5264 15.29856614 10975
COSMOS 1408 DEB         
1 49623U 82092DQ  22029.51301917  .00025246  00000+0  69236-3 0  9994
2 49623  82.5519  47.4018 0034689 260.6186  99.1136 15.36516744 11035
COSMOS 1408 DEB         
1 49624U 82092DR  22029.50409967  .00008628  00000+0  43837-3 0  9992
2 49624  82.2543  46.1862 0086472 167.1304 193.2164 15.13435845 10867
COSMOS 1408 DEB         
1 49625U 82092DS  22029.77171141  .01479587  11859-2  32886-2 0  9997
2 49625  82.5529  43.3384 0021661 301.2459  58.6695 15.97736796 11274
COSMOS 1408 DEB         
1 49626U 82092DT  22029.77842509  .00031004  00000+0  10424-2 0  9995
2 49626  82.5609  48.0257 0033040 212.3601 147.5614 15.30128385 11040
COSMOS 1408 DEB         
1 49627U 82092DU  22009.63444676  .00021228  00000+0  14634-2 0  9996
2 49627  82.8410  74.1736 0210642 269.5823  88.1259 14.89395363  7787
COSMOS 1408 DEB         
1 49628U 82092DV  22029.54215198  .00018738  00000+0  15321-2 0  9990
2 49628  82.9914  60.0228 0303530 207.6923 150.7842 14.69591951 10575
COSMOS 1408 DEB         
1 49630U 82092DX  22029.52603993  .00050855  00000+0  16691-2 0  9992
2 49630  82.3923  46.1364 0028667 139.0008 221.3395 15.30972257 10990
COSMOS 1408 DEB         
1 49631U 82092DY  22029.49276134  .00014587  00000+0  10065-2 0  9993
2 49631  82.5586  52.2316 0173026 167.5601 192.9978 14.94228203 10734
COSMOS 1408 DEB         
1 49632U 82092DZ  22029.52954837  .00026746  00000+0  13746-2 0  9990
2 49632  83.0961  57.4185 0131608 132.7988 228.4400 15.09008676 10867
COSMOS 1408 DEB         
1 49633U 82092EA  22029.52726382  .00091820  00000+0  18247-2 0  9999
2 49633  83.1181  54.2211 0057851 255.9972 103.4841 15.44782466 11100
COSMOS 1408 DEB         
1 49634U 82092EB  22029.53141435  .00020946  00000+0  10488-2 0  9991
2 49634  83.4103  60.8147 0090375 175.8929 184.3069 15.13674611 10904
COSMOS 1408 DEB         
1 49635U 82092EC  22029.54753069  .00062594  00000+0  65839-2 0  9990
2 49635  82.9394  61.8914 0394729 205.2463 152.8981 14.45623213 10421
COSMOS 1408 DEB         
1 49636U 82092ED  22029.49801941  .00107960  00000+0  19506-2 0  9995
2 49636  82.8529  50.4152 0035023 279.1980  80.5310 15.48625524 11146
COSMOS 1408 DEB         
1 49637U 82092EE  22029.50997071  .00019357  00000+0  81457-3 0  9995
2 49637  82.8586  52.9787 0053598 161.3242 198.9979 15.21915433 10990
COSMOS 1408 DEB         
1 49638U 82092EF  22029.51384946  .00034960  00000+0  21857-2 0  9992
2 49638  82.5785  55.4210 0357066 150.3825 211.8144 14.69025210 10568
COSMOS 1408 DEB         
1 49639U 82092EG  22029.37648722  .00029987  00000+0  12562-2 0  9998
2 49639  82.6441  53.4799 0284854 125.4910 237.3251 14.93538375 10730
COSMOS 1408 DEB         
1 49640U 82092EH  22029.54381918  .00031612  00000+0  13099-2 0  9994
2 49640  83.4311  60.3018 0062170 182.6222 177.4701 15.21950973 10967
COSMOS 1408 DEB         
1 49641U 82092EJ  22025.80944276  .10169545  26363+0  65264-1 0  9990
2 49641  82.7724  56.4617 0024196 199.4173 160.6179 15.85694445 10362
COSMOS 1408 DEB         
1 49642U 82092EK  22029.51297778  .00011358  00000+0  98095-3 0  9998
2 49642  83.1169  60.8644 0248488 178.9483 181.2310 14.76201640 10645
COSMOS 1408 DEB         
1 49644U 82092EM  22029.45118221  .00074344  00000+0  31583-2 0  9990
2 49644  82.5541  52.3601 0273145 127.0578 235.5963 14.95029386 10756
COSMOS 1408 DEB         
1 49645U 82092EN  22029.78038309  .00707705  00000+0  10366-1 0  9994
2 49645  82.5083  47.0441 0033843 202.4496 157.5278 15.52576409 11128
COSMOS 1408 DEB         
1 49646U 82092EP  22029.53872789  .00226714  00000+0  15403-1 0  9999
2 49646  82.5080  53.3806 0226783 170.7600 189.7904 14.86961611 10516
COSMOS 1408 DEB         
1 49647U 82092EQ  22029.48462330  .00068152  00000+0  15363-2 0  9997
2 49647  82.2195  43.8191 0137608 243.3540 115.3554 15.33537643 10916
COSMOS 1408 DEB         
1 49648U 82092ER  22029.48172036  .00054100  00000+0  45205-2 0  9995
2 49648  81.7425  45.1561 0289053 209.5843 148.8746 14.71103594 10543
COSMOS 1408 DEB         
1 49649U 82092ES  22029.77152004  .00433731  58866-4  22473-2 0  9992
2 49649  82.0894  38.6492 0081371 252.3961 106.8403 15.76075544 11205
COSMOS 1408 DEB         
1 49650U 82092ET  22029.53493797  .00752389  00000+0  16230-1 0  9993
2 49650  82.5452  49.0928 0064510 134.8810 225.7700 15.40143443 10941
COSMOS 1408 DEB         
1 49651U 82092EU  22029.44621595  .05288802  93878-1  78252-2 0  9992
2 49651  82.1695  40.7917 0018640 235.0322 124.9210 16.11376207 11030
COSMOS 1408 DEB         
1 49652U 82092EV  22029.54371552  .00061860  00000+0  16599-2 0  9996
2 49652  82.3098  45.6873 0156055 238.7688 119.8182 15.26240568 10814
COSMOS 1408 DEB         
1 49653U 82092EW  22029.54575000  .00010364  00000+0  44197-3 0  9990
2 49653  82.5502  49.1016 0059542 145.8205 214.6887 15.21137784 10907
